{
  "type": "FeatureCollection",
  "features": [
    {
      "type": "Feature",
      "properties": {
        "norad_id": 66465,
        "name": "STARLINK-35448",
        "group": "last-30-days",
        "lat": 11.039953372797697,
        "lon": -69.53150078390391,
        "alt_km": 392.96568982050394,
        "timestamp": "2025-12-03T22:42:31.475608+00:00",
        "meta_object_name": "STARLINK-35448",
        "meta_object_id": "2025-262K",
        "meta_epoch": "2025-12-03T12:00:02.998944",
        "meta_mean_motion": 15.59714299,
        "meta_eccentricity": 0.0001109,
        "meta_inclination": 42.9998,
        "meta_ra_of_asc_node": 125.1964,
        "meta_arg_of_pericenter": 264.3055,
        "meta_mean_anomaly": 272.7828,
        "meta_ephemeris_type": 0,
        "meta_classification_type": "U",
        "meta_norad_cat_id": 66465,
        "meta_element_set_no": 999,
        "meta_rev_at_epoch": 415,
        "meta_bstar": -0.029303,
        "meta_mean_motion_dot": -0.02139909,
        "meta_mean_motion_ddot": 0,
        "tle_line1": "1 66465U 25262K   25337.50003471 -.02139909  00000+0 -29303-1 0  9996",
        "tle_line2": "2 66465  42.9998 125.1964 0001109 264.3055 272.7828 15.59714299  4152"
      },
      "geometry": {
        "type": "Point",
        "coordinates": [
          -69.53150078390391,
          11.039953372797697
        ]
      }
    },
    {
      "type": "Feature",
      "properties": {
        "norad_id": 66466,
        "name": "STARLINK-35388",
        "group": "last-30-days",
        "lat": 9.759033697982685,
        "lon": -68.08823261814779,
        "alt_km": 393.1845072946644,
        "timestamp": "2025-12-03T22:42:31.475617+00:00",
        "meta_object_name": "STARLINK-35388",
        "meta_object_id": "2025-262L",
        "meta_epoch": "2025-12-03T12:00:02.998944",
        "meta_mean_motion": 15.59712558,
        "meta_eccentricity": 0.0001193,
        "meta_inclination": 42.9997,
        "meta_ra_of_asc_node": 125.1903,
        "meta_arg_of_pericenter": 267.3661,
        "meta_mean_anomaly": 271.6348,
        "meta_ephemeris_type": 0,
        "meta_classification_type": "U",
        "meta_norad_cat_id": 66466,
        "meta_element_set_no": 999,
        "meta_rev_at_epoch": 415,
        "meta_bstar": -0.029188,
        "meta_mean_motion_dot": -0.02132364,
        "meta_mean_motion_ddot": 0,
        "tle_line1": "1 66466U 25262L   25337.50003471 -.02132364  00000+0 -29188-1 0  9996",
        "tle_line2": "2 66466  42.9997 125.1903 0001193 267.3661 271.6348 15.59712558  4155"
      },
      "geometry": {
        "type": "Point",
        "coordinates": [
          -68.08823261814779,
          9.759033697982685
        ]
      }
    },
    {
      "type": "Feature",
      "properties": {
        "norad_id": 66467,
        "name": "STARLINK-35682",
        "group": "last-30-days",
        "lat": 12.317279948167231,
        "lon": -70.99292796793993,
        "alt_km": 392.8834332856486,
        "timestamp": "2025-12-03T22:42:31.475627+00:00",
        "meta_object_name": "STARLINK-35682",
        "meta_object_id": "2025-262M",
        "meta_epoch": "2025-12-03T12:00:02.998944",
        "meta_mean_motion": 15.59720349,
        "meta_eccentricity": 0.0001346,
        "meta_inclination": 42.9997,
        "meta_ra_of_asc_node": 125.201,
        "meta_arg_of_pericenter": 265.3139,
        "meta_mean_anomaly": 269.8539,
        "meta_ephemeris_type": 0,
        "meta_classification_type": "U",
        "meta_norad_cat_id": 66467,
        "meta_element_set_no": 999,
        "meta_rev_at_epoch": 415,
        "meta_bstar": -0.029427,
        "meta_mean_motion_dot": -0.0214855,
        "meta_mean_motion_ddot": 0,
        "tle_line1": "1 66467U 25262M   25337.50003471 -.02148550  00000+0 -29427-1 0  9997",
        "tle_line2": "2 66467  42.9997 125.2010 0001346 265.3139 269.8539 15.59720349  4152"
      },
      "geometry": {
        "type": "Point",
        "coordinates": [
          -70.99292796793993,
          12.317279948167231
        ]
      }
    },
    {
      "type": "Feature",
      "properties": {
        "norad_id": 66468,
        "name": "STARLINK-35331",
        "group": "last-30-days",
        "lat": 8.469928293605978,
        "lon": -66.65170550273614,
        "alt_km": 393.46658082315025,
        "timestamp": "2025-12-03T22:42:31.475636+00:00",
        "meta_object_name": "STARLINK-35331",
        "meta_object_id": "2025-262N",
        "meta_epoch": "2025-12-03T12:00:02.998944",
        "meta_mean_motion": 15.59722142,
        "meta_eccentricity": 0.0001079,
        "meta_inclination": 42.9994,
        "meta_ra_of_asc_node": 125.1863,
        "meta_arg_of_pericenter": 273.1467,
        "meta_mean_anomaly": 267.7704,
        "meta_ephemeris_type": 0,
        "meta_classification_type": "U",
        "meta_norad_cat_id": 66468,
        "meta_element_set_no": 999,
        "meta_rev_at_epoch": 415,
        "meta_bstar": -0.02944,
        "meta_mean_motion_dot": -0.02149353,
        "meta_mean_motion_ddot": 0,
        "tle_line1": "1 66468U 25262N   25337.50003471 -.02149353  00000+0 -29440-1 0  9995",
        "tle_line2": "2 66468  42.9994 125.1863 0001079 273.1467 267.7704 15.59722142  4153"
      },
      "geometry": {
        "type": "Point",
        "coordinates": [
          -66.65170550273614,
          8.469928293605978
        ]
      }
    },
    {
      "type": "Feature",
      "properties": {
        "norad_id": 66469,
        "name": "STARLINK-35451",
        "group": "last-30-days",
        "lat": 4.578233815809071,
        "lon": -62.40077293191355,
        "alt_km": 393.81028131566563,
        "timestamp": "2025-12-03T22:42:31.475645+00:00",
        "meta_object_name": "STARLINK-35451",
        "meta_object_id": "2025-262P",
        "meta_epoch": "2025-12-03T12:00:02.998944",
        "meta_mean_motion": 15.59718652,
        "meta_eccentricity": 0.0001053,
        "meta_inclination": 42.9996,
        "meta_ra_of_asc_node": 125.1711,
        "meta_arg_of_pericenter": 268.0861,
        "meta_mean_anomaly": 278.5842,
        "meta_ephemeris_type": 0,
        "meta_classification_type": "U",
        "meta_norad_cat_id": 66469,
        "meta_element_set_no": 999,
        "meta_rev_at_epoch": 415,
        "meta_bstar": -0.029365,
        "meta_mean_motion_dot": -0.02144166,
        "meta_mean_motion_ddot": 0,
        "tle_line1": "1 66469U 25262P   25337.50003471 -.02144166  00000+0 -29365-1 0  9999",
        "tle_line2": "2 66469  42.9996 125.1711 0001053 268.0861 278.5842 15.59718652  4155"
      },
      "geometry": {
        "type": "Point",
        "coordinates": [
          -62.40077293191355,
          4.578233815809071
        ]
      }
    },
    {
      "type": "Feature",
      "properties": {
        "norad_id": 66470,
        "name": "STARLINK-35655",
        "group": "last-30-days",
        "lat": 7.17778678075937,
        "lon": -65.22775256854666,
        "alt_km": 393.68354863718287,
        "timestamp": "2025-12-03T22:42:31.475653+00:00",
        "meta_object_name": "STARLINK-35655",
        "meta_object_id": "2025-262Q",
        "meta_epoch": "2025-12-03T12:00:02.998944",
        "meta_mean_motion": 15.59722205,
        "meta_eccentricity": 0.0001164,
        "meta_inclination": 42.9993,
        "meta_ra_of_asc_node": 125.1817,
        "meta_arg_of_pericenter": 275.2452,
        "meta_mean_anomaly": 267.5884,
        "meta_ephemeris_type": 0,
        "meta_classification_type": "U",
        "meta_norad_cat_id": 66470,
        "meta_element_set_no": 999,
        "meta_rev_at_epoch": 415,
        "meta_bstar": -0.029442,
        "meta_mean_motion_dot": -0.02149501,
        "meta_mean_motion_ddot": 0,
        "tle_line1": "1 66470U 25262Q   25337.50003471 -.02149501  00000+0 -29442-1 0  9995",
        "tle_line2": "2 66470  42.9993 125.1817 0001164 275.2452 267.5884 15.59722205  4153"
      },
      "geometry": {
        "type": "Point",
        "coordinates": [
          -65.22775256854666,
          7.17778678075937
        ]
      }
    },
    {
      "type": "Feature",
      "properties": {
        "norad_id": 66471,
        "name": "STARLINK-35569",
        "group": "last-30-days",
        "lat": 5.8795445159320625,
        "lon": -63.8110175353968,
        "alt_km": 393.7361209841092,
        "timestamp": "2025-12-03T22:42:31.475662+00:00",
        "meta_object_name": "STARLINK-35569",
        "meta_object_id": "2025-262R",
        "meta_epoch": "2025-12-03T12:00:02.998944",
        "meta_mean_motion": 15.59717313,
        "meta_eccentricity": 0.0001125,
        "meta_inclination": 42.9996,
        "meta_ra_of_asc_node": 125.176,
        "meta_arg_of_pericenter": 271.2014,
        "meta_mean_anomaly": 273.5531,
        "meta_ephemeris_type": 0,
        "meta_classification_type": "U",
        "meta_norad_cat_id": 66471,
        "meta_element_set_no": 999,
        "meta_rev_at_epoch": 415,
        "meta_bstar": -0.02935,
        "meta_mean_motion_dot": -0.02143149,
        "meta_mean_motion_ddot": 0,
        "tle_line1": "1 66471U 25262R   25337.50003471 -.02143149  00000+0 -29350-1 0  9996",
        "tle_line2": "2 66471  42.9996 125.1760 0001125 271.2014 273.5531 15.59717313  4151"
      },
      "geometry": {
        "type": "Point",
        "coordinates": [
          -63.8110175353968,
          5.8795445159320625
        ]
      }
    }
  ]
}